$$SOE
2460154.500000000, A.D. 2023-Jul-29 00:00:00.0000, 4.289239523586743E+08, -1.814684171176510E+08, 5.730612090995349E+06,
2460161.500000000, A.D. 2023-Aug-05 00:00:00.0000, 4.325367100570642E+08, -1.723086972279606E+08, 5.441365822949260E+06,
2460168.500000000, A.D. 2023-Aug-12 00:00:00.0000, 4.359414486853572E+08, -1.630660353537320E+08, 5.149500312857114E+06,
2460175.500000000, A.D. 2023-Aug-19 00:00:00.0000, 4.391363164282891E+08, -1.537447967576752E+08, 4.855153497346178E+06,
2460182.500000000, A.D. 2023-Aug-26 00:00:00.0000, 4.421195382003509E+08, -1.443493863969941E+08, 4.558464534547471E+06,
2460189.500000000, A.D. 2023-Sep-02 00:00:00.0000, 4.448894163573066E+08, -1.348842482722766E+08, 4.259573786002494E+06,
2460196.500000000, A.D. 2023-Sep-09 00:00:00.0000, 4.474443314469890E+08, -1.253538648841247E+08, 3.958622786788046E+06,
2460203.500000000, A.D. 2023-Sep-16 00:00:00.0000, 4.497827431665176E+08, -1.157627568519520E+08, 3.655754183491275E+06,
2460210.500000000, A.D. 2023-Sep-23 00:00:00.0000, 4.519031919420698E+08, -1.061154824038915E+08, 3.351111625211641E+06,
2460217.500000000, A.D. 2023-Sep-30 00:00:00.0000, 4.538043007937427E+08, -9.641663554288088E+07, 3.044839736299898E+06,
2460224.500000000, A.D. 2023-Oct-07 00:00:00.0000, 4.554847751362736E+08, -8.667084342994593E+07, 2.737084342858549E+06,
2460231.500000000, A.D. 2023-Oct-14 00:00:00.0000, 4.569434015579168E+08, -7.688276629821159E+07, 2.427992587063879E+06,
2460238.500000000, A.D. 2023-Oct-21 00:00:00.0000, 4.581790488052300E+08, -6.705709829391894E+07, 2.117712764096595E+06,
2460245.500000000, A.D. 2023-Oct-28 00:00:00.0000, 4.591906695489186E+08, -5.719856698211084E+07, 1.806394197137766E+06,
2460252.500000000, A.D. 2023-Nov-04 00:00:00.0000, 4.599773016808609E+08, -4.731193228539133E+07, 1.494187202325407E+06,
2460259.500000000, A.D. 2023-Nov-11 00:00:00.0000, 4.605380693196857E+08, -3.740198545367702E+07, 1.181243078537140E+06,
2460266.500000000, A.D. 2023-Nov-18 00:00:00.0000, 4.608721837438927E+08, -2.747354812704270E+07, 8.677140967636704E+05,
2460273.500000000, A.D. 2023-Nov-25 00:00:00.0000, 4.609789443247760E+08, -1.753147146668206E+07, 5.537534843742112E+05,
2460280.500000000, A.D. 2023-Dec-02 00:00:00.0000, 4.608577394868702E+08, -7.580635362681068E+06, 2.395154008776024E+05,
2460287.500000000, A.D. 2023-Dec-09 00:00:00.0000, 4.605080477733371E+08, 2.374052224833628E+06, -7.484510674578242E+04,
2460294.500000000, A.D. 2023-Dec-16 00:00:00.0000, 4.599294393028848E+08, 1.232765580575383E+07, -3.891721946093244E+05,
2460301.500000000, A.D. 2023-Dec-23 00:00:00.0000, 4.591215779644166E+08, 2.227521347118638E+07, -7.033093344090786E+05,
2460308.500000000, A.D. 2023-Dec-30 00:00:00.0000, 4.580842230077015E+08, 3.221173962908767E+07, -1.017099239246013E+06,
2460315.500000000, A.D. 2024-Jan-06 00:00:00.0000, 4.568172282591705E+08, 4.213222700686020E+07, -1.330383633148879E+06,
2460322.500000000, A.D. 2024-Jan-13 00:00:00.0000, 4.553205421355367E+08, 5.203164611509487E+07, -1.643003303389352E+06,
2460329.500000000, A.D. 2024-Jan-20 00:00:00.0000, 4.535942096758800E+08, 6.190494525922253E+07, -1.954798296237208E+06,
2460336.500000000, A.D. 2024-Jan-27 00:00:00.0000, 4.516383745614986E+08, 7.174705175456207E+07, -2.265608017078552E+06,
2460343.500000000, A.D. 2024-Feb-03 00:00:00.0000, 4.494532806940836E+08, 8.155287339914386E+07, -2.575271273392390E+06,
2460350.500000000, A.D. 2024-Feb-10 00:00:00.0000, 4.470392736083090E+08, 9.131729991592924E+07, -2.883626310094766E+06,
2460357.500000000, A.D. 2024-Feb-17 00:00:00.0000, 4.443968018559716E+08, 1.010352043750888E+08, -3.190510849578500E+06,
2460364.500000000, A.D. 2024-Feb-24 00:00:00.0000, 4.415264183958749E+08, 1.107014446139494E+08, -3.495762138754465E+06,
2460371.500000000, A.D. 2024-Mar-02 00:00:00.0000, 4.384287820170585E+08, 1.203108646249936E+08, -3.799217008616999E+06,
2460378.500000000, A.D. 2024-Mar-09 00:00:00.0000, 4.351046589325482E+08, 1.298582958518358E+08, -4.100711964369372E+06,
2460385.500000000, A.D. 2024-Mar-16 00:00:00.0000, 4.315549249368403E+08, 1.393385585925883E+08, -4.400083326471388E+06,
2460392.500000000, A.D. 2024-Mar-23 00:00:00.0000, 4.277805680195305E+08, 1.487464646217159E+08, -4.697167322695851E+06,
2460399.500000000, A.D. 2024-Mar-30 00:00:00.0000, 4.237826891901300E+08, 1.580768210078956E+08, -4.991799927720606E+06,
2460406.500000000, A.D. 2024-Apr-06 00:00:00.0000, 4.195625017702656E+08, 1.673244317646259E+08, -5.283816748854116E+06,
2460413.500000000, A.D. 2024-Apr-13 00:00:00.0000, 4.151213327031729E+08, 1.764840981713473E+08, -5.573053215544909E+06,
2460420.500000000, A.D. 2024-Apr-20 00:00:00.0000, 4.104606249240517E+08, 1.855506204433072E+08, -5.859344766784102E+06,
2460427.500000000, A.D. 2024-Apr-27 00:00:00.0000, 4.055819392705740E+08, 1.945188001910650E+08, -6.142526943166465E+06,
2460434.500000000, A.D. 2024-May-04 00:00:00.0000, 4.004869560178178E+08, 2.033834429678526E+08, -6.422435449216172E+06,
2460441.500000000, A.D. 2024-May-11 00:00:00.0000, 3.951774762710471E+08, 2.121393608041418E+08, -6.698906216217518E+06,
2460448.500000000, A.D. 2024-May-18 00:00:00.0000, 3.896554232921122E+08, 2.207813747527064E+08, -6.971775471268892E+06,
2460455.500000000, A.D. 2024-May-25 00:00:00.0000, 3.839228437777438E+08, 2.293043174400749E+08, -7.240879815227911E+06,
2460462.500000000, A.D. 2024-Jun-01 00:00:00.0000, 3.779819091443611E+08, 2.377030355712365E+08, -7.506056319424018E+06,
2460469.500000000, A.D. 2024-Jun-08 00:00:00.0000, 3.718349170624951E+08, 2.459723923690245E+08, -7.767142665314823E+06,
2460476.500000000, A.D. 2024-Jun-15 00:00:00.0000, 3.654842936379194E+08, 2.541072704957240E+08, -8.023977319056556E+06,
2460483.500000000, A.D. 2024-Jun-22 00:00:00.0000, 3.589325952292361E+08, 2.621025766321336E+08, -8.276399552637458E+06,
2460490.500000000, A.D. 2024-Jun-29 00:00:00.0000, 3.521825077735780E+08, 2.699532458952582E+08, -8.524249265340522E+06,
2460497.500000000, A.D. 2024-Jul-06 00:00:00.0000, 3.452368462622737E+08, 2.776542436264818E+08, -8.767367049918085E+06,
2460504.500000000, A.D. 2024-Jul-13 00:00:00.0000, 3.380985563109738E+08, 2.852005673735427E+08, -9.005594451678216E+06,
2460511.500000000, A.D. 2024-Jul-20 00:00:00.0000, 3.307707158304718E+08, 2.925872502141325E+08, -9.238774144460589E+06,
2460518.500000000, A.D. 2024-Jul-27 00:00:00.0000, 3.232565361345907E+08, 2.998093644620879E+08, -9.466750041678652E+06,
2460525.500000000, A.D. 2024-Aug-03 00:00:00.0000, 3.155593627510552E+08, 3.068620253816295E+08, -9.689367398153618E+06,
2460532.500000000, A.D. 2024-Aug-10 00:00:00.0000, 3.076826760940472E+08, 3.137403949052399E+08, -9.906472918447495E+06,
2460539.500000000, A.D. 2024-Aug-17 00:00:00.0000, 2.996300920384721E+08, 3.204396853766610E+08, -1.011791487443949E+07,
2460546.500000000, A.D. 2024-Aug-24 00:00:00.0000, 2.914053624162389E+08, 3.269551632962623E+08, -1.032354323671991E+07,
2460553.500000000, A.D. 2024-Aug-31 00:00:00.0000, 2.830123755425313E+08, 3.332821530066832E+08, -1.052320983563223E+07,
2460560.500000000, A.D. 2024-Sep-07 00:00:00.0000, 2.744551571302537E+08, 3.394160404444452E+08, -1.071676857540852E+07,
2460567.500000000, A.D. 2024-Sep-14 00:00:00.0000, 2.657378716710664E+08, 3.453522779513934E+08, -1.090407562819019E+07,
2460574.500000000, A.D. 2024-Sep-21 00:00:00.0000, 2.568648222450702E+08, 3.510863905537582E+08, -1.108498938826580E+07,
2460581.500000000, A.D. 2024-Sep-28 00:00:00.0000, 2.478404482606841E+08, 3.566139804789725E+08, -1.125937040524718E+07,
2460588.500000000, A.D. 2024-Oct-05 00:00:00.0000, 2.386693247880988E+08, 3.619307299122527E+08, -1.142708163276215E+07,
2460595.500000000, A.D. 2024-Oct-12 00:00:00.0000, 2.293561631193895E+08, 3.670324049687498E+08, -1.158798871633169E+07,
2460602.500000000, A.D. 2024-Oct-19 00:00:00.0000, 2.199058107953475E+08, 3.719148606049882E+08, -1.174196018182364E+07,
2460609.500000000, A.D. 2024-Oct-26 00:00:00.0000, 2.103232510580573E+08, 3.765740456637133E+08, -1.188886758678047E+07,
2460616.500000000, A.D. 2024-Nov-02 00:00:00.0000, 2.006136019788114E+08, 3.810060078990380E+08, -1.202858567014347E+07,
2460623.500000000, A.D. 2024-Nov-09 00:00:00.0000, 1.907821153506054E+08, 3.852068989970624E+08, -1.216099250730561E+07,
2460630.500000000, A.D. 2024-Nov-16 00:00:00.0000, 1.808341753639269E+08, 3.891729795857734E+08, -1.228596967254938E+07,
2460637.500000000, A.D. 2024-Nov-23 00:00:00.0000, 1.707752971055711E+08, 3.929006241769082E+08, -1.240340241686374E+07,
2460644.500000000, A.D. 2024-Nov-30 00:00:00.0000, 1.606111250814057E+08, 3.963863259890881E+08, -1.251317988326703E+07,
2460651.500000000, A.D. 2024-Dec-07 00:00:00.0000, 1.503474321753581E+08, 3.996267020649000E+08, -1.261519536328754E+07,
2460658.500000000, A.D. 2024-Dec-14 00:00:00.0000, 1.399901183500015E+08, 4.026184998971755E+08, -1.270934643113139E+07,
2460665.500000000, A.D. 2024-Dec-21 00:00:00.0000, 1.295452067630709E+08, 4.053586043114611E+08, -1.279553484365517E+07,
2460672.500000000, A.D. 2024-Dec-28 00:00:00.0000, 1.190188392630365E+08, 4.078440416279837E+08, -1.287366662857673E+07,
2460679.500000000, A.D. 2025-Jan-04 00:00:00.0000, 1.084172738570519E+08, 4.100719834743190E+08, -1.294365240480280E+07,
2460686.500000000, A.D. 2025-Jan-11 00:00:00.0000, 9.774688232900681E+07, 4.120397518980450E+08, -1.300540763207445E+07,
2460693.500000000, A.D. 2025-Jan-18 00:00:00.0000, 8.701414708829308E+07, 4.137448248462145E+08, -1.305885278026375E+07,
2460700.500000000, A.D. 2025-Jan-25 00:00:00.0000, 7.622565748980092E+07, 4.151848415216839E+08, -1.310391347857118E+07,
2460707.500000000, A.D. 2025-Feb-01 00:00:00.0000, 6.538810581097525E+07, 4.163576075702350E+08, -1.314052066344664E+07,
2460714.500000000, A.D. 2025-Feb-08 00:00:00.0000, 5.450828294016773E+07, 4.172611001032859E+08, -1.316861072794464E+07,
2460721.500000000, A.D. 2025-Feb-15 00:00:00.0000, 4.359307380190881E+07, 4.178934725232104E+08, -1.318812567595255E+07,
$$EOE